{
  "type": "FeatureCollection",
  "features": [
    {
      "type": "Feature",
      "properties": {
        "norad_id": 44334,
        "name": "EUTELSAT 7C",
        "group": "eutelsat",
        "lat": -0.0274831423893418,
        "lon": 151.62985708840003,
        "alt_km": 35788.82803442277,
        "timestamp": "2025-12-20T03:42:47.063598+00:00",
        "meta_object_name": "EUTELSAT 7C",
        "meta_object_id": "2019-034B",
        "meta_epoch": "2025-12-19T13:17:54.868128",
        "meta_mean_motion": 1.00270496,
        "meta_eccentricity": 0.0003054,
        "meta_inclination": 0.0733,
        "meta_ra_of_asc_node": 179.964,
        "meta_arg_of_pericenter": 72.3162,
        "meta_mean_anomaly": 42.5872,
        "meta_ephemeris_type": 0,
        "meta_classification_type": "U",
        "meta_norad_cat_id": 44334,
        "meta_element_set_no": 999,
        "meta_rev_at_epoch": 503,
        "meta_bstar": 0,
        "meta_mean_motion_dot": 7.3e-07,
        "meta_mean_motion_ddot": 0,
        "tle_line1": "1 44334U 19034B   25353.55410727  .00000073  00000+0  00000+0 0  9992",
        "tle_line2": "2 44334   0.0733 179.9640 0003054  72.3162  42.5872  1.00270496  5037"
      },
      "geometry": {
        "type": "Point",
        "coordinates": [
          151.62985708840003,
          -0.0274831423893418
        ]
      }
    },
    {
      "type": "Feature",
      "properties": {
        "norad_id": 44624,
        "name": "EUTELSAT 5 WEST B",
        "group": "eutelsat",
        "lat": 0.02994489435081734,
        "lon": 139.65797225084697,
        "alt_km": 35794.23585633496,
        "timestamp": "2025-12-20T03:42:47.063626+00:00",
        "meta_object_name": "EUTELSAT 5 WEST B",
        "meta_object_id": "2019-067A",
        "meta_epoch": "2025-12-19T18:22:30.045792",
        "meta_mean_motion": 1.0027128,
        "meta_eccentricity": 0.0002994,
        "meta_inclination": 0.0681,
        "meta_ra_of_asc_node": 333.6647,
        "meta_arg_of_pericenter": 295.2265,
        "meta_mean_anomaly": 90.35,
        "meta_ephemeris_type": 0,
        "meta_classification_type": "U",
        "meta_norad_cat_id": 44624,
        "meta_element_set_no": 999,
        "meta_rev_at_epoch": 2263,
        "meta_bstar": 0,
        "meta_mean_motion_dot": -1.8e-07,
        "meta_mean_motion_ddot": 0,
        "tle_line1": "1 44624U 19067A   25353.76562553 -.00000018  00000+0  00000+0 0  9998",
        "tle_line2": "2 44624   0.0681 333.6647 0002994 295.2265  90.3500  1.00271280 22635"
      },
      "geometry": {
        "type": "Point",
        "coordinates": [
          139.65797225084697,
          0.02994489435081734
        ]
      }
    },
    {
      "type": "Feature",
      "properties": {
        "norad_id": 45027,
        "name": "EUTELSAT KONNECT",
        "group": "eutelsat",
        "lat": 0.06575473054911794,
        "lon": 151.8707425181559,
        "alt_km": 35790.51738849472,
        "timestamp": "2025-12-20T03:42:47.063639+00:00",
        "meta_object_name": "EUTELSAT KONNECT",
        "meta_object_id": "2020-005B",
        "meta_epoch": "2025-12-19T13:17:54.868128",
        "meta_mean_motion": 1.00269378,
        "meta_eccentricity": 0.0001288,
        "meta_inclination": 0.0703,
        "meta_ra_of_asc_node": 95.1584,
        "meta_arg_of_pericenter": 191.2571,
        "meta_mean_anomaly": 8.6712,
        "meta_ephemeris_type": 0,
        "meta_classification_type": "U",
        "meta_norad_cat_id": 45027,
        "meta_element_set_no": 999,
        "meta_rev_at_epoch": 2253,
        "meta_bstar": 0,
        "meta_mean_motion_dot": 7.4e-07,
        "meta_mean_motion_ddot": 0,
        "tle_line1": "1 45027U 20005B   25353.55410727  .00000074  00000+0  00000+0 0  9993",
        "tle_line2": "2 45027   0.0703  95.1584 0001288 191.2571   8.6712  1.00269378 22539"
      },
      "geometry": {
        "type": "Point",
        "coordinates": [
          151.8707425181559,
          0.06575473054911794
        ]
      }
    },
    {
      "type": "Feature",
      "properties": {
        "norad_id": 49056,
        "name": "EUTELSAT QUANTUM",
        "group": "eutelsat",
        "lat": 0.001665157456792438,
        "lon": -167.65471030076995,
        "alt_km": 35785.20111441207,
        "timestamp": "2025-12-20T03:42:47.063651+00:00",
        "meta_object_name": "EUTELSAT QUANTUM",
        "meta_object_id": "2021-069B",
        "meta_epoch": "2025-12-19T15:12:13.917888",
        "meta_mean_motion": 1.00271741,
        "meta_eccentricity": 0.0003328,
        "meta_inclination": 0.0176,
        "meta_ra_of_asc_node": 28.185,
        "meta_arg_of_pericenter": 250.9076,
        "meta_mean_anomaly": 85.1489,
        "meta_ephemeris_type": 0,
        "meta_classification_type": "U",
        "meta_norad_cat_id": 49056,
        "meta_element_set_no": 999,
        "meta_rev_at_epoch": 1612,
        "meta_bstar": 0,
        "meta_mean_motion_dot": 1.5e-06,
        "meta_mean_motion_ddot": 0,
        "tle_line1": "1 49056U 21069B   25353.63349442  .00000150  00000+0  00000+0 0  9999",
        "tle_line2": "2 49056   0.0176  28.1850 0003328 250.9076  85.1489  1.00271741 16127"
      },
      "geometry": {
        "type": "Point",
        "coordinates": [
          -167.65471030076995,
          0.001665157456792438
        ]
      }
    },
    {
      "type": "Feature",
      "properties": {
        "norad_id": 53765,
        "name": "EUTELSAT KONNECT VHTS",
        "group": "eutelsat",
        "lat": 0.057611151008619924,
        "lon": 147.38111600460925,
        "alt_km": 35787.66479472206,
        "timestamp": "2025-12-20T03:42:47.063663+00:00",
        "meta_object_name": "EUTELSAT KONNECT VHTS",
        "meta_object_id": "2022-110A",
        "meta_epoch": "2025-12-18T22:15:38.693952",
        "meta_mean_motion": 1.00269719,
        "meta_eccentricity": 0.00022903,
        "meta_inclination": 0.0647,
        "meta_ra_of_asc_node": 100.6033,
        "meta_arg_of_pericenter": 142.9466,
        "meta_mean_anomaly": 180.8811,
        "meta_ephemeris_type": 0,
        "meta_classification_type": "U",
        "meta_norad_cat_id": 53765,
        "meta_element_set_no": 999,
        "meta_rev_at_epoch": 501,
        "meta_bstar": 0,
        "meta_mean_motion_dot": 4.2e-07,
        "meta_mean_motion_ddot": 0,
        "tle_line1": "1 53765U 22110A   25352.92753118  .00000042  00000+0  00000+0 0  9999",
        "tle_line2": "2 53765   0.0647 100.6033 0002290 142.9466 180.8811  1.00269719  5011"
      },
      "geometry": {
        "type": "Point",
        "coordinates": [
          147.38111600460925,
          0.057611151008619924
        ]
      }
    },
    {
      "type": "Feature",
      "properties": {
        "norad_id": 54048,
        "name": "EUTELSAT HOTBIRD 13F",
        "group": "eutelsat",
        "lat": -0.026896943919683385,
        "lon": 157.68423834086698,
        "alt_km": 35794.776421111164,
        "timestamp": "2025-12-20T03:42:47.063675+00:00",
        "meta_object_name": "EUTELSAT HOTBIRD 13F",
        "meta_object_id": "2022-134A",
        "meta_epoch": "2025-12-19T18:27:37.056096",
        "meta_mean_motion": 1.00272066,
        "meta_eccentricity": 0.0002356,
        "meta_inclination": 0.0491,
        "meta_ra_of_asc_node": 294.8043,
        "meta_arg_of_pericenter": 69.7798,
        "meta_mean_anomaly": 13.9259,
        "meta_ephemeris_type": 0,
        "meta_classification_type": "U",
        "meta_norad_cat_id": 54048,
        "meta_element_set_no": 999,
        "meta_rev_at_epoch": 1157,
        "meta_bstar": 0,
        "meta_mean_motion_dot": 1.12e-06,
        "meta_mean_motion_ddot": 0,
        "tle_line1": "1 54048U 22134A   25353.76917889  .00000112  00000+0  00000+0 0  9998",
        "tle_line2": "2 54048   0.0491 294.8043 0002356  69.7798  13.9259  1.00272066 11576"
      },
      "geometry": {
        "type": "Point",
        "coordinates": [
          157.68423834086698,
          -0.026896943919683385
        ]
      }
    },
    {
      "type": "Feature",
      "properties": {
        "norad_id": 54225,
        "name": "EUTELSAT HOTBIRD 13G",
        "group": "eutelsat",
        "lat": -0.028596559495770908,
        "lon": 157.6643885039694,
        "alt_km": 35778.67803270621,
        "timestamp": "2025-12-20T03:42:47.063687+00:00",
        "meta_object_name": "EUTELSAT HOTBIRD 13G",
        "meta_object_id": "2022-146A",
        "meta_epoch": "2025-12-19T18:27:37.056096",
        "meta_mean_motion": 1.0027241,
        "meta_eccentricity": 0.0001789,
        "meta_inclination": 0.0515,
        "meta_ra_of_asc_node": 225.8744,
        "meta_arg_of_pericenter": 308.1908,
        "meta_mean_anomaly": 204.4423,
        "meta_ephemeris_type": 0,
        "meta_classification_type": "U",
        "meta_norad_cat_id": 54225,
        "meta_element_set_no": 999,
        "meta_rev_at_epoch": 566,
        "meta_bstar": 0,
        "meta_mean_motion_dot": 1.12e-06,
        "meta_mean_motion_ddot": 0,
        "tle_line1": "1 54225U 22146A   25353.76917889  .00000112  00000+0  00000+0 0  9998",
        "tle_line2": "2 54225   0.0515 225.8744 0001789 308.1908 204.4423  1.00272410  5660"
      },
      "geometry": {
        "type": "Point",
        "coordinates": [
          157.6643885039694,
          -0.028596559495770908
        ]
      }
    }
  ]
}